

*******************************************************************************
Ephemeris / WWW_USER Wed Mar 13 03:06:06 2024 Pasadena, USA      / Horizons
*******************************************************************************
Target body name: SOHO (spacecraft) (-21)         {source: SOHO_merged}
Center body name: Earth (399)                     {source: DE441}
Center-site name: BODY CENTER
*******************************************************************************
Start time      : A.D. 1996-Feb-13 00:00:00.0000 TDB
Stop  time      : A.D. 1996-Feb-16 00:00:00.0000 TDB
Step-size       : 30 minutes
*******************************************************************************
Center geodetic : 0.0, 0.0, 0.0                   {E-lon(deg),Lat(deg),Alt(km)}
Center cylindric: 0.0, 0.0, 0.0                   {E-lon(deg),Dxy(km),Dz(km)}
Center radii    : 6378.137, 6378.137, 6356.752 km {Equator_a, b, pole_c}
Output units    : KM-S
Calendar mode   : Mixed Julian/Gregorian
Output type     : GEOMETRIC cartesian states
Output format   : 2 (position and velocity)
EOP file        : eop.240312.p240605
EOP coverage    : DATA-BASED 1962-JAN-20 TO 2024-MAR-12. PREDICTS-> 2024-JUN-04
Reference frame : ICRF
*******************************************************************************
            JDTDB,            Calendar Date (TDB),                      X,                      Y,                      Z,                     VX,                     VY,                     VZ,
**************************************************************************************************************************************************************************************************
$$SOE
2450128.250000000, A.D. 1996-Feb-14 18:00:00.0000,  6.942602878881284E+05, -1.120537551347637E+06, -4.465926515890105E+05,  3.086360683138192E-01,  2.291699320263663E-01,  1.531247354731319E-01,
2450128.270833333, A.D. 1996-Feb-14 18:30:00.0000,  6.948158280892579E+05, -1.120124771849215E+06, -4.463169291337366E+05,  3.086306986009081E-01,  2.294729270726619E-01,  1.532367368733673E-01,
2450128.291666667, A.D. 1996-Feb-14 19:00:00.0000,  6.953713580579534E+05, -1.119711484122075E+06, -4.460409958769818E+05,  3.086249122739299E-01,  2.297761238547985E-01,  1.533486292524446E-01,
2450128.312500000, A.D. 1996-Feb-14 19:30:00.0000,  6.959268776947337E+05, -1.119297605036899E+06, -4.457648722045269E+05,  3.086184255677589E-01,  2.300793226640945E-01,  1.534606333403336E-01,
2450128.333333333, A.D. 1996-Feb-14 20:00:00.0000,  6.964823782703707E+05, -1.118883120874741E+06, -4.454885395928375E+05,  3.086114466401924E-01,  2.303826169382741E-01,  1.535725341592200E-01,
2450128.354166667, A.D. 1996-Feb-14 20:30:00.0000,  6.970378787863516E+05, -1.118468141931075E+06, -4.452120066282457E+05,  3.086039700632975E-01,  2.306860172660615E-01,  1.536844341591922E-01,
2450128.375000000, A.D. 1996-Feb-14 21:00:00.0000,  6.975933505572948E+05, -1.118052665354282E+06, -4.449352739144099E+05,  3.085958905647756E-01,  2.309895197500277E-01,  1.537963341591643E-01,
2450128.395833333, A.D. 1996-Feb-14 21:30:00.0000,  6.981488208962043E+05, -1.117636587213330E+06, -4.446583414178119E+05,  3.085873028375351E-01,  2.312931124249172E-01,  1.539082341591366E-01,
2450128.416666667, A.D. 1996-Feb-14 22:00:00.0000,  6.987042712186167E+05, -1.117220010425845E+06, -4.443812078275617E+05,  3.085781237329305E-01,  2.315968153059297E-01,  1.540201341397789E-01,
2450128.437500000, A.D. 1996-Feb-14 22:30:00.0000,  6.992597020539428E+05, -1.116802921555059E+06, -4.441038647248769E+05,  3.085683456080793E-01,  2.319005101883307E-01,  1.541320390497117E-01,
2450128.458333333, A.D. 1996-Feb-14 23:00:00.0000,  6.998151124946466E+05, -1.116385135992638E+06, -4.438263321693903E+05,  3.085580690505156E-01,  2.322044009137293E-01,  1.542438351886599E-01,
2450128.479166667, A.D. 1996-Feb-14 23:30:00.0000,  7.003705132091483E+05, -1.115966963312401E+06, -4.435485889337055E+05,  3.085471848720569E-01,  2.325083011000075E-01,  1.543556428253299E-01,
2450128.500000000, A.D. 1996-Feb-15 00:00:00.0000,  7.009258841263661E+05, -1.115548171708038E+06, -4.432706460627411E+05,  3.085358047815154E-01,  2.328121959986088E-01,  1.544674426582784E-01,
2450128.520833333, A.D. 1996-Feb-15 00:30:00.0000,  7.014812345900723E+05, -1.115128801387011E+06, -4.429925122322912E+05,  3.085238252991960E-01,  2.331162867240069E-01,  1.545792426582507E-01,
2450128.541666667, A.D. 1996-Feb-15 01:00:00.0000,  7.020365655233922E+05, -1.114708924432503E+06, -4.427141694059985E+05,  3.085113375719571E-01,  2.334203880377322E-01,  1.546910412814235E-01,
2450128.562500000, A.D. 1996-Feb-15 01:30:00.0000,  7.025918756930423E+05, -1.114288536689166E+06, -4.424356169129147E+05,  3.084982596141316E-01,  2.337245905216984E-01,  1.548028363791496E-01,
2450128.583333333, A.D. 1996-Feb-15 02:00:00.0000,  7.031471659004642E+05, -1.113867557603994E+06, -4.421568732026895E+05,  3.084846819097928E-01,  2.340288820498101E-01,  1.549145485316069E-01,
2450128.604166667, A.D. 1996-Feb-15 02:30:00.0000,  7.037024269534511E+05, -1.113445973441835E+06, -4.418779297665074E+05,  3.084703961640483E-01,  2.343331833635377E-01,  1.550262483483558E-01,
2450128.625000000, A.D. 1996-Feb-15 03:00:00.0000,  7.042576581274123E+05, -1.113023893140704E+06, -4.415987776411782E+05,  3.084557236944040E-01,  2.346375860775266E-01,  1.551379469908586E-01,
2450128.645833333, A.D. 1996-Feb-15 03:30:00.0000,  7.048128596519845E+05, -1.112601305413568E+06, -4.413194345560760E+05,  3.084403403348617E-01,  2.349419811706195E-01,  1.552496360511766E-01,
2450128.666666667, A.D. 1996-Feb-15 04:00:00.0000,  7.053680400767574E+05, -1.112178127455845E+06, -4.410398816920124E+05,  3.084244600336298E-01,  2.352464801409371E-01,  1.553612446899857E-01,
2450128.687500000, A.D. 1996-Feb-15 04:30:00.0000,  7.059231914827254E+05, -1.111754450879056E+06, -4.407601283744373E+05,  3.084080723063927E-01,  2.355510716852489E-01,  1.554728445229341E-01,
2450128.708333333, A.D. 1996-Feb-15 05:00:00.0000,  7.064783125403883E+05, -1.111330171380640E+06, -4.404801755264761E+05,  3.083910932017921E-01,  2.358556732289966E-01,  1.555844445229063E-01,
2450128.729166667, A.D. 1996-Feb-15 05:30:00.0000,  7.070333937954871E+05, -1.110905383672834E+06, -4.402000220525252E+05,  3.083735150769450E-01,  2.361602792586145E-01,  1.556960447335713E-01,
2450128.750000000, A.D. 1996-Feb-15 06:00:00.0000,  7.075884542429495E+05, -1.110479999888396E+06, -4.399196691046375E+05,  3.083554385000557E-01,  2.364650747107486E-01,  1.558075531891563E-01,
2450128.770833333, A.D. 1996-Feb-15 06:30:00.0000,  7.081434764944832E+05, -1.110054029189654E+06, -4.396391162550545E+05,  3.083367592315615E-01,  2.367697708059822E-01,  1.559190530221057E-01,
2450128.791666667, A.D. 1996-Feb-15 07:00:00.0000,  7.086984673977640E+05, -1.109627642862782E+06, -4.393583627791707E+05,  3.083174750693072E-01,  2.370745711337695E-01,  1.560305516452785E-01,
2450128.812500000, A.D. 1996-Feb-15 07:30:00.0000,  7.092534181626384E+05, -1.109200555926695E+06, -4.390774102992774E+05,  3.082976949787699E-01,  2.373794724709588E-01,  1.561420467623342E-01,
2450128.833333333, A.D. 1996-Feb-15 08:00:00.0000,  7.098083396896024E+05, -1.108773073664278E+06, -4.387962567090292E+05,  3.082773154771248E-01,  2.376843626811345E-01,  1.562534528773843E-01,
2450128.854166667, A.D. 1996-Feb-15 08:30:00.0000,  7.103632208288439E+05, -1.108344901408389E+06, -4.385148936063462E+05,  3.082564340173202E-01,  2.379892677471999E-01,  1.563648491611536E-01,
2450128.875000000, A.D. 1996-Feb-15 09:00:00.0000,  7.109180625940795E+05, -1.107916318946544E+06, -4.382333410278573E+05,  3.082348617806599E-01,  2.382942616513785E-01,  1.564762540679585E-01,
2450128.895833333, A.D. 1996-Feb-15 09:30:00.0000,  7.114728639689949E+05, -1.107487046709984E+06, -4.379515874376090E+05,  3.082128719238392E-01,  2.385992593107678E-01,  1.565875548868452E-01,
2450128.916666667, A.D. 1996-Feb-15 10:00:00.0000,  7.120276260891446E+05, -1.107057356853265E+06, -4.376696241991796E+05,  3.081901852338756E-01,  2.389042569276197E-01,  1.566988548868175E-01,
2450128.937500000, A.D. 1996-Feb-15 10:30:00.0000,  7.125823467210187E+05, -1.106626971290850E+06, -4.373874705267276E+05,  3.081670049295179E-01,  2.392093596384790E-01,  1.568101548674600E-01,
2450128.958333333, A.D. 1996-Feb-15 11:00:00.0000,  7.131370279995782E+05, -1.106196198591290E+06, -4.371051080507885E+05,  3.081433234697147E-01,  2.395144596222027E-01,  1.569214597580638E-01,
2450128.979166667, A.D. 1996-Feb-15 11:30:00.0000,  7.136916599860062E+05, -1.105764811686197E+06, -4.368225461801628E+05,  3.081189514437485E-01,  2.398195607689066E-01,  1.570326608069739E-01,
2450129.000000000, A.D. 1996-Feb-15 12:00:00.0000,  7.142462517345357E+05, -1.105332827691070E+06, -4.365397924897014E+05,  3.080940709592971E-01,  2.401247621060959E-01,  1.571437629951287E-01,
2450129.020833333, A.D. 1996-Feb-15 12:30:00.0000,  7.148008028570928E+05, -1.104900347600637E+06, -4.362568292493394E+05,  3.080686834427560E-01,  2.404299509394714E-01,  1.572549557494463E-01,
2450129.041666667, A.D. 1996-Feb-15 13:00:00.0000,  7.153553042175490E+05, -1.104467269475891E+06, -4.359736761825592E+05,  3.080426139598805E-01,  2.407351511226225E-01,  1.573660569622507E-01,
2450129.062500000, A.D. 1996-Feb-15 13:30:00.0000,  7.159097560873615E+05, -1.104033692918438E+06, -4.356903132954953E+05,  3.080160309485407E-01,  2.410403524800163E-01,  1.574770665646139E-01,
2450129.083333333, A.D. 1996-Feb-15 14:00:00.0000,  7.164641581701580E+05, -1.103599508740088E+06, -4.354067596233568E+05,  3.079889457288670E-01,  2.413455636496190E-01,  1.575881681562128E-01,
2450129.104166667, A.D. 1996-Feb-15 14:30:00.0000,  7.170185196667742E+05, -1.103164828649652E+06, -4.351229963849260E+05,  3.079612701541213E-01,  2.416507572182199E-01,  1.576990736901721E-01,
